LUCKY-7                 
1 44406U 19038W   24154.71618731  .00034282  00000+0  77307-3 0  9994
2 44406  97.7018 152.0653 0015681 134.7248 225.5279 15.43041754272135
BEESAT 9                
1 44412U 19038AC  24154.96663371  .03854028  26238-5  15158-2 0  9991
2 44412  97.6632 162.7883 0010594 209.8707 150.1980 16.23694348272592
JAISAT-1                
1 44419U 19038F   24155.48645404  .01082309  63911-3  16696-2 0  9991
2 44419  97.6580 164.0634 0009226 168.4074 191.7419 16.04315503273037
DUCHIFAT-3              
1 44854U 19089C   24155.29622243  .00016057  00000+0  82127-3 0  9990
2 44854  36.9553 133.3321 0007169 315.1327  44.8839 15.15969742246095
M2 PATHFINDER           
1 45727U 20037E   24155.48443014  .00003938  00000+0  34647-3 0  9991
2 45727  97.7752 331.9935 0011675 165.4662 194.6897 14.97047656213893
NETSAT-4                
1 46504U 20068U   24155.40008131  .00011001  00000+0  59271-3 0  9998
2 46504  97.8047 112.1701 0011865  57.5291 302.7086 15.14928339202082
NETSAT-3                
1 46505U 20068V   24155.44549134  .00009479  00000+0  51949-3 0  9996
2 46505  97.8018 111.7412 0011175  64.8481 295.3907 15.14371810202086
NETSAT-1                
1 46506U 20068W   24154.68682682  .00007443  00000+0  42771-3 0  9990
2 46506  97.8044 110.4707 0010049  75.7353 284.4993 15.12763040201932
NETSAT-2                
1 46507U 20068X   24154.82182762  .00010340  00000+0  55933-3 0  9995
2 46507  97.8030 111.2132 0009598  80.0807 280.1507 15.14823033201945
WILDTRACKCUBE-SIMBA     
1 47941U 21022K   24155.49136526  .00012746  00000+0  57452-3 0  9990
2 47941  97.4631  52.3837 0015454 184.3564 175.7540 15.21066650176381
BEESAT-6                
1 47957U 21022AB  24154.96164919  .00210078  00000+0  20850-2 0  9994
2 47957  97.4372  62.5011 0011985 132.1117 228.1163 15.65025369176831
SMOG-1                  
1 47964U 21022AJ  24155.29012405  .00170743  00000+0  18954-2 0  9997
2 47964  97.4635  65.9499 0012451 128.2716 231.9664 15.62276993176069
BCCSAT-1                
1 48041U 21022AK  24155.29097255  .00074858  00000+0  14780-2 0  9993
2 48041  97.4646  61.9873 0010756 131.7676 228.4494 15.46834037175781
BEESAT-5                
1 48083U 21022AM  24154.98639100  .00563975  00000+0  24599-2 0  9997
2 48083  97.3997  64.0361 0012044 133.3823 226.8452 15.83241121176127
BEESAT-7                
1 48084U 21022AN  24153.73213847  .00102724  00000+0  14108-2 0  9992
2 48084  97.4597  61.2420 0012355 140.4276 219.7883 15.56881556175351
BEESAT-8                
1 48085U 21022AP  24153.67765170  .00025316  00000+0  82420-3 0  9991
2 48085  97.4776  55.6039 0013014 168.5470 191.6070 15.31760394175506
LEDSAT                  
1 49069U 21073D   24155.14083663  .00015956  00000+0  65115-3 0  9995
2 49069  97.4387 226.3697 0018306 335.9850  24.0531 15.24345029154318
SITRO-AIS 5 (KATYS)     
1 57176U 23091L   24155.49241567  .00009405  00000+0  60866-3 0  9992
2 57176  97.6139 207.7937 0018486 164.8440 195.3346 15.08245613 51431
SITRO-AIS 6 (CHIRKIN)   
1 57192U 23091AC  24155.47811726  .00008538  00000+0  55209-3 0  9999
2 57192  97.6141 207.8036 0018359 163.9398 196.2416 15.08307288 51439
SITRO-AIS 8 (ANOKHIN)   
1 57193U 23091AD  24155.51517064  .00008717  00000+0  55910-3 0  9991
2 57193  97.6129 207.9007 0018076 165.1675 195.0087 15.08605384 51443
SITRO-AIS 7 (FARTUSHNIY)
1 57194U 23091AE  24155.48273187  .00008530  00000+0  55224-3 0  9994
2 57194  97.6139 207.7912 0018204 164.6552 195.5232 15.08263494 51437
SITRO-AIS 10 (BURDAEV)  
1 57199U 23091AK  24155.50179635  .00010664  00000+0  65139-3 0  9992
2 57199  97.6148 208.7479 0013426 153.2547 206.9378 15.10393879 51498
SITRO-AIS 9 (SHCHUKIN)  
1 57201U 23091AM  24155.49998508  .00010798  00000+0  65978-3 0  9991
2 57201  97.6144 208.7279 0013395 153.1460 207.0466 15.10380026 51494
SITRO-AIS 12 (SMIRENNIY)
1 57204U 23091AQ  24155.53042489  .00009474  00000+0  57641-3 0  9994
2 57204  97.6154 208.8839 0013554 146.8984 213.3096 15.10570327 51504
SITRO-AIS 11 (SHEFFER)  
1 57208U 23091AU  24155.51684919  .00010069  00000+0  61098-3 0  9999
2 57208  97.6149 208.8914 0013302 147.6847 212.5200 15.10651787 51502
SITRO-AIS 29            
1 59052U 24039B   24155.53447787  .00021479  00000+0  80352-3 0  9994
2 59052  97.3905 117.6542 0015168 262.3575  97.5942 15.27231946 14510
SITRO-AIS 30            
1 59053U 24039C   24155.53382118  .00020225  00000+0  75734-3 0  9997
2 59053  97.3902 117.6519 0015297 263.4213  96.5284 15.27211229 14505
SITRO-AIS 31            
1 59054U 24039D   24155.52817320  .00021751  00000+0  81145-3 0  9993
2 59054  97.3904 117.6596 0015170 263.3618  96.5894 15.27320293 14522
SITRO-AIS 33            
1 59055U 24039E   24155.52141183  .00022474  00000+0  83507-3 0  9998
2 59055  97.3908 117.6722 0014881 264.2840  95.6702 15.27450665 14517
SITRO-AIS 35            
1 59056U 24039F   24155.51821495  .00020750  00000+0  77057-3 0  9997
2 59056  97.3905 117.6748 0014695 264.3936  95.5628 15.27488657 14511
SITRO-AIS 32            
1 59057U 24039G   24155.52310775  .00021069  00000+0  78539-3 0  9993
2 59057  97.3907 117.6692 0014731 264.6864  95.2694 15.27360028 14517
SITRO-AIS 34            
1 59058U 24039H   24155.52056690  .00021342  00000+0  79384-3 0  9990
2 59058  97.3908 117.6742 0014893 264.3793  95.5748 15.27426038 14519
SITRO-AIS 36            
1 59059U 24039J   24155.51449904  .00021276  00000+0  78867-3 0  9995
2 59059  97.3905 117.6799 0014421 264.4617  95.4977 15.27547547 14514
SITRO-AIS 49            
1 59060U 24039K   24155.51422780  .00022891  00000+0  84895-3 0  9992
2 59060  97.3907 117.6802 0014485 263.8935  96.0654 15.27515460 14517
SITRO-AIS 50            
1 59061U 24039L   24155.50763916  .00023490  00000+0  86664-3 0  9993
2 59061  97.3905 117.6886 0014364 264.1255  95.8347 15.27682628 14510
SITRO-AIS 51            
1 59062U 24039M   24155.50691049  .00021300  00000+0  78698-3 0  9997
2 59062  97.3906 117.6897 0014347 264.1780  95.7823 15.27655960 14515
SITRO-AIS 52            
1 59063U 24039N   24155.50189148  .00021953  00000+0  80893-3 0  9994
2 59063  97.3907 117.6969 0014213 263.9406  96.0213 15.27739704 14517
SITRO-AIS 25            
1 59066U 24039R   24155.51078102  .00009070  00000+0  86654-3 0  9992
2 59066  95.4032  88.0977 0173620  30.8212 330.3062 14.82623394 14087
SITRO-AIS 26            
1 59067U 24039S   24155.51016390  .00008850  00000+0  84623-3 0  9993
2 59067  95.4031  88.0976 0173476  30.8521 330.2755 14.82610922 14089
SITRO-AIS 27            
1 59068U 24039T   24155.50242030  .00009465  00000+0  90207-3 0  9993
2 59068  95.4034  88.1075 0173154  30.7325 330.3897 14.82759213 14083
SITRO-AIS 28            
1 59071U 24039U   24155.50023516  .00009447  00000+0  89991-3 0  9991
2 59071  95.4034  88.1104 0173006  30.7237 330.3973 14.82796345 14080
BEIJING 1               
1 28890U 05043A   24155.54268778  .00000632  00000+0  13441-3 0  9999
2 28890  98.1985 278.5002 0016205  89.4729 270.8329 14.62337252991900
HUANJING 1A (HJ-1A)     
1 33320U 08041A   24155.50605976  .00002479  00000+0  33371-3 0  9990
2 33320  97.6306 163.1955 0021728  58.7723 301.5615 14.79895987848330
HUANJING 1B (HJ-1B)     
1 33321U 08041B   24155.51294994  .00001842  00000+0  24562-3 0  9991
2 33321  97.6263 167.7416 0040032 100.4810 260.0917 14.80209808848355
YAOGAN-4                
1 33446U 08061A   24155.36498895  .00000703  00000+0  10014-3 0  9992
2 33446  97.8797  87.5068 0014321 335.7255  24.3280 14.79776311835511
DEIMOS-1                
1 35681U 09041A   24155.47663420  .00000983  00000+0  15917-3 0  9991
2 35681  97.6799 338.1351 0002832  81.1508 279.0021 14.73307900797293
UK-DMC 2                
1 35683U 09041C   24155.55223808  .00001437  00000+0  22952-3 0  9996
2 35683  97.7797 303.7608 0001563  98.4768 261.6618 14.73290929797006
DMC3-FM1                
1 40715U 15032A   24155.47384836  .00001134  00000+0  14362-3 0  9995
2 40715  97.7521  34.7896 0005435 353.9627   6.1521 14.83659481479542
DMC3-FM2                
1 40716U 15032B   24155.49677407  .00001156  00000+0  14627-3 0  9995
2 40716  97.7574  35.8719 0007410 354.5519   5.5613 14.83665594479546
DMC3-FM3                
1 40717U 15032C   24155.52092969  .00000947  00000+0  12107-3 0  9992
2 40717  97.7622  37.1637 0008778 349.0335  11.0686 14.83601571479556
GSAT0101 (PRN E11)      
1 37846U 11060A   24153.88551841 -.00000083  00000+0  00000+0 0  9991
2 37846  57.1283   1.9461 0003676  41.4472 318.6231  1.70475781 78415
GSAT0102 (PRN E12)      
1 37847U 11060B   24154.14561095 -.00000084  00000+0  00000+0 0  9995
2 37847  57.1292   1.9393 0003679   7.9730 197.4359  1.70475233 78424
GSAT0103 (PRN E19)      
1 38857U 12055A   24154.51120470  .00000043  00000+0  00000+0 0  9995
2 38857  55.4012 122.0085 0005635 280.5489  79.3500  1.70473498 72313
GSAT0201 (PRN E18)      
1 40128U 14050A   24154.53462306 -.00000097  00000+0  00000+0 0  9995
2 40128  49.6757 303.6522 1611118 150.6659 219.4447  1.85519270 64501
GSAT0202 (PRN E14)      
1 40129U 14050B   24154.79297047 -.00000099  00000+0  00000+0 0  9994
2 40129  49.6925 302.7184 1609853 151.4786 218.3769  1.85519875 66672
GSAT0203 (PRN E26)      
1 40544U 15017A   24153.07820140 -.00000081  00000+0  00000+0 0  9996
2 40544  56.9237   1.9043 0001557 285.4004  74.6243  1.70475703 56482
GSAT0204 (PRN E22)      
1 40545U 15017B   24155.09212767 -.00000087  00000+0  00000+0 0  9997
2 40545  56.9298   1.8648 0001136 236.1650 123.8660  1.70475490 57184
GSAT0205 (PRN E24)      
1 40889U 15045A   24153.68713575 -.00000009  00000+0  00000+0 0  9999
2 40889  55.2242 242.1987 0003787  38.6235 321.4431  1.70474051 54305
GSAT0206 (PRN E30)      
1 40890U 15045B   24154.49437109 -.00000008  00000+0  00000+0 0  9996
2 40890  55.2230 242.1720 0002364  56.9964 303.0676  1.70473847 54344
